{
  "type": "FeatureCollection",
  "features": [
    {
      "type": "Feature",
      "properties": {
        "norad_id": 34003,
        "name": "COSMOS 2251 DEB",
        "group": "cosmos-2251-debris",
        "lat": -47.71573911200975,
        "lon": 136.63167311519666,
        "alt_km": 1156.3474665044214,
        "timestamp": "2025-12-04T21:36:16.265138+00:00",
        "meta_object_name": "COSMOS 2251 DEB",
        "meta_object_id": "1993-036GN",
        "meta_epoch": "2025-12-03T08:04:48.560160",
        "meta_mean_motion": 13.84063937,
        "meta_eccentricity": 0.0273684,
        "meta_inclination": 74.0779,
        "meta_ra_of_asc_node": 300.9687,
        "meta_arg_of_pericenter": 55.2105,
        "meta_mean_anomaly": 307.4448,
        "meta_ephemeris_type": 0,
        "meta_classification_type": "U",
        "meta_norad_cat_id": 34003,
        "meta_element_set_no": 999,
        "meta_rev_at_epoch": 84295,
        "meta_bstar": 0.0024892,
        "meta_mean_motion_dot": 3.681e-05,
        "meta_mean_motion_ddot": 0,
        "tle_line1": "1 34003U 93036GN  25337.33667315  .00003681  00000+0  24892-2 0  9999",
        "tle_line2": "2 34003  74.0779 300.9687 0273684  55.2105 307.4448 13.84063937842959"
      },
      "geometry": {
        "type": "Point",
        "coordinates": [
          136.63167311519666,
          -47.71573911200975
        ]
      }
    },
    {
      "type": "Feature",
      "properties": {
        "norad_id": 34004,
        "name": "COSMOS 2251 DEB",
        "group": "cosmos-2251-debris",
        "lat": -19.71281845908007,
        "lon": 153.69661183346392,
        "alt_km": 752.213067085374,
        "timestamp": "2025-12-04T21:36:16.265148+00:00",
        "meta_object_name": "COSMOS 2251 DEB",
        "meta_object_id": "1993-036GP",
        "meta_epoch": "2025-12-04T00:47:42.970272",
        "meta_mean_motion": 14.48867664,
        "meta_eccentricity": 0.0033078,
        "meta_inclination": 74.0351,
        "meta_ra_of_asc_node": 329.434,
        "meta_arg_of_pericenter": 342.8249,
        "meta_mean_anomaly": 17.1788,
        "meta_ephemeris_type": 0,
        "meta_classification_type": "U",
        "meta_norad_cat_id": 34004,
        "meta_element_set_no": 999,
        "meta_rev_at_epoch": 87904,
        "meta_bstar": 0.0027329388,
        "meta_mean_motion_dot": 0.00010395,
        "meta_mean_motion_ddot": 0,
        "tle_line1": "1 34004U 93036GP  25338.03313623  .00010395  00000+0  27329-2 0  9996",
        "tle_line2": "2 34004  74.0351 329.4340 0033078 342.8249  17.1788 14.48867664879045"
      },
      "geometry": {
        "type": "Point",
        "coordinates": [
          153.69661183346392,
          -19.71281845908007
        ]
      }
    },
    {
      "type": "Feature",
      "properties": {
        "norad_id": 34005,
        "name": "COSMOS 2251 DEB",
        "group": "cosmos-2251-debris",
        "lat": -1.8233925915624603,
        "lon": -132.39081238961592,
        "alt_km": 745.9791988710558,
        "timestamp": "2025-12-04T21:36:16.265159+00:00",
        "meta_object_name": "COSMOS 2251 DEB",
        "meta_object_id": "1993-036GQ",
        "meta_epoch": "2025-12-04T03:58:45.693696",
        "meta_mean_motion": 14.4029469,
        "meta_eccentricity": 0.00205107,
        "meta_inclination": 74.0451,
        "meta_ra_of_asc_node": 229.4873,
        "meta_arg_of_pericenter": 349.2706,
        "meta_mean_anomaly": 162.6298,
        "meta_ephemeris_type": 0,
        "meta_classification_type": "U",
        "meta_norad_cat_id": 34005,
        "meta_element_set_no": 999,
        "meta_rev_at_epoch": 88255,
        "meta_bstar": 0.00021925248,
        "meta_mean_motion_dot": 6.7e-06,
        "meta_mean_motion_ddot": 0,
        "tle_line1": "1 34005U 93036GQ  25338.16580664  .00000670  00000+0  21925-3 0  9994",
        "tle_line2": "2 34005  74.0451 229.4873 0020510 349.2706 162.6298 14.40294690882550"
      },
      "geometry": {
        "type": "Point",
        "coordinates": [
          -132.39081238961592,
          -1.8233925915624603
        ]
      }
    },
    {
      "type": "Feature",
      "properties": {
        "norad_id": 34006,
        "name": "COSMOS 2251 DEB",
        "group": "cosmos-2251-debris",
        "lat": -0.5591999130776963,
        "lon": -20.778325461908867,
        "alt_km": 585.1161725932179,
        "timestamp": "2025-12-04T21:36:16.265169+00:00",
        "meta_object_name": "COSMOS 2251 DEB",
        "meta_object_id": "1993-036GR",
        "meta_epoch": "2025-12-04T14:39:52.592832",
        "meta_mean_motion": 14.93859238,
        "meta_eccentricity": 0.0012083,
        "meta_inclination": 74.0532,
        "meta_ra_of_asc_node": 159.643,
        "meta_arg_of_pericenter": 115.1728,
        "meta_mean_anomaly": 310.7171,
        "meta_ephemeris_type": 0,
        "meta_classification_type": "U",
        "meta_norad_cat_id": 34006,
        "meta_element_set_no": 999,
        "meta_rev_at_epoch": 88547,
        "meta_bstar": 0.0062185221,
        "meta_mean_motion_dot": 0.00066767,
        "meta_mean_motion_ddot": 0,
        "tle_line1": "1 34006U 93036GR  25338.61102538  .00066767  00000+0  62185-2 0  9996",
        "tle_line2": "2 34006  74.0532 159.6430 0012083 115.1728 310.7171 14.93859238885477"
      },
      "geometry": {
        "type": "Point",
        "coordinates": [
          -20.778325461908867,
          -0.5591999130776963
        ]
      }
    },
    {
      "type": "Feature",
      "properties": {
        "norad_id": 34007,
        "name": "COSMOS 2251 DEB",
        "group": "cosmos-2251-debris",
        "lat": -49.50245769516715,
        "lon": -158.40655454800705,
        "alt_km": 685.9618460272104,
        "timestamp": "2025-12-04T21:36:16.265179+00:00",
        "meta_object_name": "COSMOS 2251 DEB",
        "meta_object_id": "1993-036GS",
        "meta_epoch": "2025-12-04T12:21:19.294560",
        "meta_mean_motion": 14.64696618,
        "meta_eccentricity": 0.00447209,
        "meta_inclination": 74.0197,
        "meta_ra_of_asc_node": 2.7287,
        "meta_arg_of_pericenter": 140.2471,
        "meta_mean_anomaly": 220.1989,
        "meta_ephemeris_type": 0,
        "meta_classification_type": "U",
        "meta_norad_cat_id": 34007,
        "meta_element_set_no": 999,
        "meta_rev_at_epoch": 88959,
        "meta_bstar": 0.0014830166,
        "meta_mean_motion_dot": 7.988e-05,
        "meta_mean_motion_ddot": 0,
        "tle_line1": "1 34007U 93036GS  25338.51480665  .00007988  00000+0  14830-2 0  9990",
        "tle_line2": "2 34007  74.0197   2.7287 0044720 140.2471 220.1989 14.64696618889597"
      },
      "geometry": {
        "type": "Point",
        "coordinates": [
          -158.40655454800705,
          -49.50245769516715
        ]
      }
    },
    {
      "type": "Feature",
      "properties": {
        "norad_id": 34008,
        "name": "COSMOS 2251 DEB",
        "group": "cosmos-2251-debris",
        "lat": 66.78309939207993,
        "lon": 122.97958360946447,
        "alt_km": 784.3463238770355,
        "timestamp": "2025-12-04T21:36:16.265189+00:00",
        "meta_object_name": "COSMOS 2251 DEB",
        "meta_object_id": "1993-036GT",
        "meta_epoch": "2025-12-04T09:55:11.216928",
        "meta_mean_motion": 14.33137428,
        "meta_eccentricity": 0.00240086,
        "meta_inclination": 74.0342,
        "meta_ra_of_asc_node": 345.7362,
        "meta_arg_of_pericenter": 342.5833,
        "meta_mean_anomaly": 133.3655,
        "meta_ephemeris_type": 0,
        "meta_classification_type": "U",
        "meta_norad_cat_id": 34008,
        "meta_element_set_no": 999,
        "meta_rev_at_epoch": 87845,
        "meta_bstar": 0.00022984712,
        "meta_mean_motion_dot": 6.07e-06,
        "meta_mean_motion_ddot": 0,
        "tle_line1": "1 34008U 93036GT  25338.41332427  .00000607  00000+0  22985-3 0  9994",
        "tle_line2": "2 34008  74.0342 345.7362 0024008 342.5833 133.3655 14.33137428878453"
      },
      "geometry": {
        "type": "Point",
        "coordinates": [
          122.97958360946447,
          66.78309939207993
        ]
      }
    },
    {
      "type": "Feature",
      "properties": {
        "norad_id": 34009,
        "name": "COSMOS 2251 DEB",
        "group": "cosmos-2251-debris",
        "lat": 37.206744570734806,
        "lon": 158.71306753554103,
        "alt_km": 773.8453335475206,
        "timestamp": "2025-12-04T21:36:16.265198+00:00",
        "meta_object_name": "COSMOS 2251 DEB",
        "meta_object_id": "1993-036GU",
        "meta_epoch": "2025-12-04T11:26:07.883232",
        "meta_mean_motion": 14.33212486,
        "meta_eccentricity": 0.0026278,
        "meta_inclination": 74.0372,
        "meta_ra_of_asc_node": 352.0382,
        "meta_arg_of_pericenter": 64.3416,
        "meta_mean_anomaly": 51.033,
        "meta_ephemeris_type": 0,
        "meta_classification_type": "U",
        "meta_norad_cat_id": 34009,
        "meta_element_set_no": 999,
        "meta_rev_at_epoch": 87827,
        "meta_bstar": 0.00025302894,
        "meta_mean_motion_dot": 6.72e-06,
        "meta_mean_motion_ddot": 0,
        "tle_line1": "1 34009U 93036GU  25338.47648013  .00000672  00000+0  25303-3 0  9991",
        "tle_line2": "2 34009  74.0372 352.0382 0026278  64.3416  51.0330 14.33212486878271"
      },
      "geometry": {
        "type": "Point",
        "coordinates": [
          158.71306753554103,
          37.206744570734806
        ]
      }
    }
  ]
}